[{"OBJECT_NAME":"STARLINK-2644","OBJECT_ID":"2021-040Q","EPOCH":"2026-03-09T12:29:13.742880","MEAN_MOTION":15.3026185,"ECCENTRICITY":2.35e-5,"INCLINATION":53.1593,"RA_OF_ASC_NODE":178.9056,"ARG_OF_PERICENTER":113.8154,"MEAN_ANOMALY":246.2871,"EPHEMERIS_TYPE":0,"CLASSIFICATION_TYPE":"U","NORAD_CAT_ID":48442,"ELEMENT_SET_NO":999,"REV_AT_EPOCH":26665,"BSTAR":0.001131098,"MEAN_MOTION_DOT":0.00033356,"MEAN_MOTION_DDOT":0},{"OBJECT_NAME":"PEGASUS DEB","OBJECT_ID":"1994-029AER","EPOCH":"2026-02-26T06:39:21.581568","MEAN_MOTION":15.03561005,"ECCENTRICITY":0.01227406,"INCLINATION":81.7323,"RA_OF_ASC_NODE":356.2383,"ARG_OF_PERICENTER":77.7128,"MEAN_ANOMALY":283.7806,"EPHEMERIS_TYPE":0,"CLASSIFICATION_TYPE":"U","NORAD_CAT_ID":39306,"ELEMENT_SET_NO":999,"REV_AT_EPOCH":9218,"BSTAR":0.0046128236,"MEAN_MOTION_DOT":0.00074995,"MEAN_MOTION_DDOT":0}]
